ORBCOMM FM24            
1 25478U 98053D   25162.74900674  .00000630  00000+0  25261-3 0  9991
2 25478  45.0087 294.8818 0003613 200.0771 159.9936 14.38090935396666
ORBCOMM FM25            
1 25479U 98053E   25162.78972401  .00000691  00000+0  27246-3 0  9995
2 25479  45.0079 292.9587 0005893 212.3207 147.7281 14.38065780396963
ORBCOMM FM26            
1 25480U 98053F   25162.72815795  .00000509  00000+0  21708-3 0  9998
2 25480  45.0075 289.6695 0007519 228.8820 131.1379 14.37128849396863
ORBCOMM FM27            
1 25481U 98053G   25162.43020235  .00000727  00000+0  28415-3 0  9998
2 25481  45.0062 294.8686 0002158 201.7834 158.2922 14.38094144396884
ORBCOMM FM28            
1 25482U 98053H   25162.88533379  .00000464  00000+0  19751-3 0  9997
2 25482  45.0045 230.2185 0006599 261.7629  98.2471 14.38284711397597
ORBCOMM FM30            
1 25980U 99065A   25162.92730751  .00000602  00000+0  24731-3 0  9990
2 25980  45.0307 114.6103 0008169 336.0034  24.0433 14.37291854333698
ORBCOMM FM31            
1 25981U 99065B   25162.90036635  .00000521  00000+0  22063-3 0  9995
2 25981  45.0222 108.2283 0005218 352.2925   7.7842 14.37229179333248
ORBCOMM FM32            
1 25982U 99065C   25162.80422006  .00000586  00000+0  24676-3 0  9999
2 25982  45.0146 125.2257 0007509 349.8561  10.2135 14.36274758333827
